NORAD_CAT_ID,OBJECT_NAME,OBJECT_TYPE,EPOCH,MEAN_MOTION,ECCENTRICITY,INCLINATION,RA_OF_ASC_NODE,ARG_OF_PERICENTER,MEAN_ANOMALY,BSTAR,MEAN_MOTION_DOT,MEAN_MOTION_DDOT,TLE_LINE0,TLE_LINE1,TLE_LINE2,SEMIMAJOR_AXIS,PERIOD,APOGEE,PERIGEE,DECAYED
53252.0,STARLINK-4132,PAYLOAD,2022-11-20 20:52:40,15.08841139,0.0002152,53.2162,202.777,38.3406,321.7739,4.9004e-05,4.92e-06,0.0,0 STARLINK-4132,1 53252U 22086L   22324.86991127  .00000492  00000-0  49004-4 0  9997,2 53252  53.2162 202.7770 0002152  38.3406 321.7739 15.08841139 19199,6917.877,95.437,541.231,538.253,0.0
53252.0,STARLINK-4132,PAYLOAD,2022-11-21 01:38:49,15.088388,0.0002339,53.2168,201.8844,36.5241,323.591,2.5689e-05,1.21e-06,0.0,0 STARLINK-4132,1 53252U 22086L   22325.06863281  .00000121  00000-0  25689-4 0  9991,2 53252  53.2168 201.8844 0002339  36.5241 323.5910 15.08838800 19025,6917.884,95.438,541.367,538.131,0.0
53252.0,STARLINK-4132,PAYLOAD,2022-11-21 19:08:03,15.08845203,0.0002395,53.2168,198.6145,34.5851,325.5296,9.8488e-05,1.28e-05,0.0,0 STARLINK-4132,1 53252U 22086L   22325.79726787  .00001280  00000-0  98488-4 0  9994,2 53252  53.2168 198.6145 0002395  34.5851 325.5296 15.08845203 19337,6917.864000000001,95.437,541.386,538.073,0.0
53252.0,STARLINK-4132,PAYLOAD,2022-11-22 01:29:36,15.08838193,0.0002433,53.2166,197.4261,32.347,327.7671,3.3408e-05,2.43e-06,0.0,0 STARLINK-4132,1 53252U 22086L   22326.06223354  .00000243  00000-0  33408-4 0  9996,2 53252  53.2166 197.4261 0002433  32.3470 327.7671 15.08838193 19372,6917.886,95.438,541.434,538.068,0.0
53252.0,STARLINK-4132,PAYLOAD,2022-11-22 20:34:14,15.08836761,0.0002353,53.2169,193.8572,32.3315,327.7821,5.6703e-05,6.14e-06,0.0,0 STARLINK-4132,1 53252U 22086L   22326.85711363  .00000614  00000-0  56703-4 0  9990,2 53252  53.2169 193.8572 0002353  32.3315 327.7821 15.08836761 19498,6917.89,95.438,541.383,538.128,0.0
53252.0,STARLINK-4132,PAYLOAD,2022-11-23 01:20:23,15.08839246,0.0002425,53.2167,192.9651,32.8659,327.2483,0.00011328,1.515e-05,0.0,0 STARLINK-4132,1 53252U 22086L   22327.05583071  .00001515  00000-0  11328-3 0  9990,2 53252  53.2167 192.9651 0002425  32.8659 327.2483 15.08839246 19322,6917.8830000000025,95.438,541.425,538.07,0.0
53252.0,STARLINK-4132,PAYLOAD,2022-11-23 18:49:39,15.08799028,0.0002433,53.2168,189.6922,46.0377,314.0816,0.00043264,6.596e-05,0.0,0 STARLINK-4132,1 53252U 22086L   22327.78448830  .00006596  00000-0  43264-3 0  9991,2 53252  53.2168 189.6922 0002433  46.0377 314.0816 15.08799028 19631,6918.005999999999,95.44,541.554,538.187,0.0
53252.0,STARLINK-4132,PAYLOAD,2022-11-24 01:11:11,15.08842833,0.0002183,53.2168,188.5027,40.9092,319.2064,-0.00015955,-2.827e-05,0.0,0 STARLINK-4132,1 53252U 22086L   22328.04943852 -.00002827  00000-0 -15955-3 0  9996,2 53252  53.2168 188.5027 0002183  40.9092 319.2064 15.08842833 19471,6917.871999999999,95.437,541.247,538.227,0.0
53252.0,STARLINK-4132,PAYLOAD,2022-11-24 07:32:44,15.08833584,0.000244,53.217,187.314,37.2818,322.8344,7.0965e-05,8.41e-06,0.0,0 STARLINK-4132,1 53252U 22086L   22328.31440145  .00000841  00000-0  70965-4 0  9998,2 53252  53.2170 187.3140 0002440  37.2818 322.8344 15.08833584 19719,6917.9,95.438,541.453,538.077,0.0
53252.0,STARLINK-4132,PAYLOAD,2022-11-24 21:51:12,15.08840364,0.000249,53.2169,184.6377,37.9014,322.2153,5.964600000000001e-05,6.61e-06,0.0,0 STARLINK-4132,1 53252U 22086L   22328.91055873  .00000661  00000-0  59646-4 0  9997,2 53252  53.2169 184.6377 0002490  37.9014 322.2153 15.08840364 19805,6917.879,95.438,541.467,538.0219999999998,0.0
53252.0,STARLINK-4132,PAYLOAD,2022-11-25 01:01:58,15.08839281,0.0002477,53.2167,184.0433,37.4957,322.6208,4.5401e-05,4.34e-06,0.0,0 STARLINK-4132,1 53252U 22086L   22329.04303993  .00000434  00000-0  45401-4 0  9993,2 53252  53.2167 184.0433 0002477  37.4957 322.6208 15.08839281 19829,6917.8830000000025,95.438,541.461,538.034,0.0
53252.0,STARLINK-4132,PAYLOAD,2022-11-25 15:20:26,15.08842959,0.0002463,53.2167,181.3672,37.0904,323.0258,0.0001354,1.867e-05,0.0,0 STARLINK-4132,1 53252U 22086L   22329.63919633  .00001867  00000-0  13540-3 0  9991,2 53252  53.2167 181.3672 0002463  37.0904 323.0258 15.08842959 19711,6917.871,95.437,541.44,538.0319999999998,0.0
53252.0,STARLINK-4132,PAYLOAD,2022-11-25 20:06:35,15.08846046,0.0002442,53.2167,180.4751,38.1634,321.953,0.00015672,2.207e-05,0.0,0 STARLINK-4132,1 53252U 22086L   22329.83791379  .00002207  00000-0  15672-3 0  9995,2 53252  53.2167 180.4751 0002442  38.1634 321.9530 15.08846046 19944,6917.861999999999,95.437,541.4159999999998,538.038,0.0
53252.0,STARLINK-4132,PAYLOAD,2022-11-26 07:14:17,15.08851969,0.0002479,53.2165,178.3935,38.7219,321.3951,0.00018086,2.592e-05,0.0,0 STARLINK-4132,1 53252U 22086L   22330.30158830  .00002592  00000-0  18086-3 0  9997,2 53252  53.2165 178.3935 0002479  38.7219 321.3951 15.08851969 19814,6917.844,95.437,541.424,537.994,0.0
53252.0,STARLINK-4132,PAYLOAD,2022-11-26 13:35:50,15.08848803,0.0002847,53.2162,177.204,45.8976,314.225,0.00014796,2.068e-05,0.0,0 STARLINK-4132,1 53252U 22086L   22330.56655207  .00002068  00000-0  14796-3 0  9997,2 53252  53.2162 177.2040 0002847  45.8976 314.2250 15.08848803 20058,6917.853,95.437,541.688,537.749,0.0
53252.0,STARLINK-4132,PAYLOAD,2022-11-26 15:11:13,15.08843748,0.0002563,53.2166,176.9067,42.2261,317.8928,9.496e-05,1.223e-05,0.0,0 STARLINK-4132,1 53252U 22086L   22330.63279581  .00001223  00000-0  94960-4 0  9996,2 53252  53.2166 176.9067 0002563  42.2261 317.8928 15.08843748 19861,6917.869000000002,95.437,541.507,537.961,0.0
53252.0,STARLINK-4132,PAYLOAD,2022-11-26 19:57:22,15.08847303,0.0002812,53.2163,176.0143,45.201,314.921,0.00012109,1.64e-05,0.0,0 STARLINK-4132,1 53252U 22086L   22330.83151272  .00001640  00000-0  12109-3 0  9991,2 53252  53.2163 176.0143 0002812  45.2010 314.9210 15.08847303 20096,6917.858,95.437,541.668,537.778,0.0
53252.0,STARLINK-4132,PAYLOAD,2022-11-27 08:40:27,15.08845892,0.0002531,53.2155,173.6361,40.3835,319.7344,5.7453e-05,6.26e-06,0.0,0 STARLINK-4132,1 53252U 22086L   22331.36143093  .00000626  00000-0  57453-4 0  9997,2 53252  53.2155 173.6361 0002531  40.3835 319.7344 15.08845892 20172,6917.861999999999,95.437,541.4780000000002,537.976,0.0
53252.0,STARLINK-4132,PAYLOAD,2022-11-27 19:48:10,15.08835152,0.0002577,53.2155,171.5542,38.9012,321.2166,-0.00014595,-2.61e-05,0.0,0 STARLINK-4132,1 53252U 22086L   22331.82511693 -.00002610  00000-0 -14595-3 0  9999,2 53252  53.2155 171.5542 0002577  38.9012 321.2166 15.08835152 20044,6917.895,95.438,541.543,537.977,0.0
53252.0,STARLINK-4132,PAYLOAD,2022-11-28 13:17:25,15.0883356,0.0002598,53.2165,168.2833,42.1077,318.0114,-1.4611e-05,-5.21e-06,0.0,0 STARLINK-4132,1 53252U 22086L   22332.55376357 -.00000521  00000-0 -14611-4 0  9995,2 53252  53.2165 168.2833 0002598  42.1077 318.0114 15.08833560 20354,6917.9,95.438,541.562,537.9680000000002,0.0
53252.0,STARLINK-4132,PAYLOAD,2022-11-28 22:49:44,15.088332500000002,0.0002607,53.2164,166.4992,41.4908,318.6282,1.9168e-05,1.7e-07,0.0,0 STARLINK-4132,1 53252U 22086L   22332.95120426  .00000017  00000-0  19168-4 0  9993,2 53252  53.2164 166.4992 0002607  41.4908 318.6282 15.08833250 20218,6917.901,95.438,541.57,537.9630000000002,0.0
53252.0,STARLINK-4132,PAYLOAD,2022-11-29 13:08:12,15.08832466,0.0002607,53.2165,163.8233,41.3897,318.7292,7.5226e-05,9.09e-06,0.0,0 STARLINK-4132,1 53252U 22086L   22333.54736570  .00000909  00000-0  75226-4 0  9999,2 53252  53.2165 163.8233 0002607  41.3897 318.7292 15.08832466 20506,6917.903,95.438,541.572,537.965,0.0
53252.0,STARLINK-4132,PAYLOAD,2022-11-29 19:29:44,15.08834901,0.0002616,53.2165,162.6338,41.9915,318.1277,9.1773e-05,1.172e-05,0.0,0 STARLINK-4132,1 53252U 22086L   22333.81232539  .00001172  00000-0  91773-4 0  9993,2 53252  53.2165 162.6338 0002616  41.9915 318.1277 15.08834901 20543,6917.896,95.438,541.571,537.951,0.0
53252.0,STARLINK-4132,PAYLOAD,2022-11-30 12:58:58,15.08850325,0.0002634999999999,53.2163,159.3625,42.7046,317.415,0.00022566,3.306e-05,0.0,0 STARLINK-4132,1 53252U 22086L   22334.54095215  .00003306  00000-0  22566-3 0  9996,2 53252  53.2163 159.3625 0002635  42.7046 317.4150 15.08850325 20650,6917.849,95.437,541.5369999999998,537.891,0.0
53252.0,STARLINK-4132,PAYLOAD,2022-11-30 19:20:31,15.08845424,0.0002602,53.2162,158.1723,45.3154,314.8049,0.00017227,2.455e-05,0.0,0 STARLINK-4132,1 53252U 22086L   22334.80591618  .00002455  00000-0  17227-3 0  9995,2 53252  53.2162 158.1723 0002602  45.3154 314.8049 15.08845424 20492,6917.864000000001,95.437,541.529,537.929,0.0
53252.0,STARLINK-4132,PAYLOAD,2022-12-01 04:52:50,15.08838993,0.0002611,53.2168,156.389,44.4277,315.6924,7.0477e-05,8.33e-06,0.0,0 STARLINK-4132,1 53252U 22086L   22335.20336232  .00000833  00000-0  70477-4 0  9994,2 53252  53.2168 156.3890 0002611  44.4277 315.6924 15.08838993 20550,6917.8830000000025,95.438,541.555,537.942,0.0
53252.0,STARLINK-4132,PAYLOAD,2022-12-01 12:49:45,15.08841125,0.0002574,53.2167,154.9016,43.6914,316.4282,6.4444e-05,7.37e-06,0.0,0 STARLINK-4132,1 53252U 22086L   22335.53456017  .00000737  00000-0  64444-4 0  9994,2 53252  53.2167 154.9016 0002574  43.6914 316.4282 15.08841125 20805,6917.877,95.437,541.523,537.961,0.0
53252.0,STARLINK-4132,PAYLOAD,2022-12-01 19:11:19,15.08830307,0.0002427,53.2171,153.7133,48.7096,311.4105,-3.6248e-05,-8.65e-06,0.0,0 STARLINK-4132,1 53252U 22086L   22335.79953110 -.00000865  00000-0 -36248-4 0  9993,2 53252  53.2171 153.7133 0002427  48.7096 311.4105 15.08830307 20642,6917.91,95.438,541.4540000000002,538.096,0.0
53252.0,STARLINK-4132,PAYLOAD,2022-12-02 12:40:34,15.08829512,0.0002495,53.2164,150.4412,42.9127,317.2059,-2.1942e-05,-6.38e-06,0.0,0 STARLINK-4132,1 53252U 22086L   22336.52817147 -.00000638  00000-0 -21942-4 0  9997,2 53252  53.2164 150.4412 0002495  42.9127 317.2059 15.08829512 20956,6917.9119999999975,95.438,541.503,538.0509999999998,0.0
